{
  "type": "FeatureCollection",
  "features": [
    {
      "type": "Feature",
      "properties": {
        "name": "Forest Avenue BID Boundary",
        "description": "Forest Avenue corridor from Hart Blvd to Broadway, Staten Island, NY",
        "source": "forestavenuebid.com/about/ and corridor address range in directory"
      },
      "geometry": {
        "type": "Polygon",
        "coordinates": [
          [
            [-74.1166, 40.6296],
            [-74.1148, 40.6301],
            [-74.1125, 40.6306],
            [-74.1098, 40.6310],
            [-74.1067, 40.6312],
            [-74.1038, 40.63135],
            [-74.1010, 40.6314],
            [-74.1012, 40.63045],
            [-74.1040, 40.6303],
            [-74.1069, 40.63005],
            [-74.1098, 40.62975],
            [-74.1126, 40.62945],
            [-74.1148, 40.62915],
            [-74.1166, 40.62875],
            [-74.1166, 40.6296]
          ]
        ]
      }
    }
  ]
}
